$$SOE
2460714.500000000, A.D. 2025-Feb-08 00:00:00.0000, 6.428277310524892E+09, -7.637746434880633E+08, -2.479508786720626E+08,
2460721.500000000, A.D. 2025-Feb-15 00:00:00.0000, 6.428565014672508E+09, -7.610232414390889E+08, -2.481747509850951E+08,
2460728.500000000, A.D. 2025-Feb-22 00:00:00.0000, 6.428851559768083E+09, -7.582717927928352E+08, -2.483985782324618E+08,
2460735.500000000, A.D. 2025-Mar-01 00:00:00.0000, 6.429136948028067E+09, -7.555202976470478E+08, -2.486223605436668E+08,
2460742.500000000, A.D. 2025-Mar-08 00:00:00.0000, 6.429421182751081E+09, -7.527687562149756E+08, -2.488460981991850E+08,
2460749.500000000, A.D. 2025-Mar-15 00:00:00.0000, 6.429704268295684E+09, -7.500171669898771E+08, -2.490697914749326E+08,
2460756.500000000, A.D. 2025-Mar-22 00:00:00.0000, 6.429986207849976E+09, -7.472655263224473E+08, -2.492934403983520E+08,
2460763.500000000, A.D. 2025-Mar-29 00:00:00.0000, 6.430267002570520E+09, -7.445138302529590E+08, -2.495170448132767E+08,
2460770.500000000, A.D. 2025-Apr-05 00:00:00.0000, 6.430546652415861E+09, -7.417620754596732E+08, -2.497406045272169E+08,
2460777.500000000, A.D. 2025-Apr-12 00:00:00.0000, 6.430825156748642E+09, -7.390102592193300E+08, -2.499641193562145E+08,
2460784.500000000, A.D. 2025-Apr-19 00:00:00.0000, 6.431102514519161E+09, -7.362583792607884E+08, -2.501875891224114E+08,
2460791.500000000, A.D. 2025-Apr-26 00:00:00.0000, 6.431378724301998E+09, -7.335064337145057E+08, -2.504110136461001E+08,
2460798.500000000, A.D. 2025-May-03 00:00:00.0000, 6.431653784299424E+09, -7.307544211383030E+08, -2.506343927413439E+08,
2460805.500000000, A.D. 2025-May-10 00:00:00.0000, 6.431927692340150E+09, -7.280023406104000E+08, -2.508577262172569E+08,
2460812.500000000, A.D. 2025-May-17 00:00:00.0000, 6.432200445910145E+09, -7.252501919304246E+08, -2.510810138918030E+08,
2460819.500000000, A.D. 2025-May-24 00:00:00.0000, 6.432472042389489E+09, -7.224979759825847E+08, -2.513042556386061E+08,
2460826.500000000, A.D. 2025-May-31 00:00:00.0000, 6.432742479912979E+09, -7.197456949497683E+08, -2.515274514797306E+08,
2460833.500000000, A.D. 2025-Jun-07 00:00:00.0000, 6.433011758453573E+09, -7.169933511735626E+08, -2.517506015892181E+08,
2460840.500000000, A.D. 2025-Jun-14 00:00:00.0000, 6.433279878764135E+09, -7.142409453268396E+08, -2.519737060449960E+08,
2460847.500000000, A.D. 2025-Jun-21 00:00:00.0000, 6.433546840394210E+09, -7.114884771700871E+08, -2.521967647080804E+08,
2460854.500000000, A.D. 2025-Jun-28 00:00:00.0000, 6.433812641910060E+09, -7.087359471266290E+08, -2.524197773717467E+08,
2460861.500000000, A.D. 2025-Jul-05 00:00:00.0000, 6.434077281801215E+09, -7.059833565201108E+08, -2.526427438652759E+08,
2460868.500000000, A.D. 2025-Jul-12 00:00:00.0000, 6.434340758882564E+09, -7.032307072794319E+08, -2.528656640687949E+08,
2460875.500000000, A.D. 2025-Jul-19 00:00:00.0000, 6.434603072381517E+09, -7.004780016860468E+08, -2.530885379035264E+08,
2460882.500000000, A.D. 2025-Jul-26 00:00:00.0000, 6.434864221920221E+09, -6.977252422200613E+08, -2.533113653212389E+08,
2460889.500000000, A.D. 2025-Aug-02 00:00:00.0000, 6.435124207458171E+09, -6.949724314833043E+08, -2.535341462970178E+08,
2460896.500000000, A.D. 2025-Aug-09 00:00:00.0000, 6.435383029218661E+09, -6.922195722137879E+08, -2.537568808285555E+08,
2460903.500000000, A.D. 2025-Aug-16 00:00:00.0000, 6.435640687676002E+09, -6.894666674545090E+08, -2.539795689540156E+08,
2460910.500000000, A.D. 2025-Aug-23 00:00:00.0000, 6.435897183896139E+09, -6.867137208598330E+08, -2.542022108137492E+08,
2460917.500000000, A.D. 2025-Aug-30 00:00:00.0000, 6.436152520559623E+09, -6.839607364251758E+08, -2.544248067274506E+08,
2460924.500000000, A.D. 2025-Sep-06 00:00:00.0000, 6.436406702248763E+09, -6.812077166395309E+08, -2.546473570746875E+08,
2460931.500000000, A.D. 2025-Sep-13 00:00:00.0000, 6.436659733328251E+09, -6.784546615435508E+08, -2.548698620282130E+08,
2460938.500000000, A.D. 2025-Sep-20 00:00:00.0000, 6.436911616692467E+09, -6.757015703374594E+08, -2.550923215744202E+08,
2460945.500000000, A.D. 2025-Sep-27 00:00:00.0000, 6.437162354438021E+09, -6.729484424270620E+08, -2.553147356635264E+08,
2460952.500000000, A.D. 2025-Oct-04 00:00:00.0000, 6.437411948444827E+09, -6.701952773684537E+08, -2.555371042602743E+08,
2460959.500000000, A.D. 2025-Oct-11 00:00:00.0000, 6.437660400492071E+09, -6.674420746542350E+08, -2.557594273378366E+08,
2460966.500000000, A.D. 2025-Oct-18 00:00:00.0000, 6.437907712192736E+09, -6.646888336153944E+08, -2.559817048633268E+08,
2460973.500000000, A.D. 2025-Oct-25 00:00:00.0000, 6.438153884886202E+09, -6.619355534275181E+08, -2.562039367868493E+08,
2460980.500000000, A.D. 2025-Nov-01 00:00:00.0000, 6.438398919528338E+09, -6.591822332054378E+08, -2.564261230365417E+08,
2460987.500000000, A.D. 2025-Nov-08 00:00:00.0000, 6.438642816613597E+09, -6.564288722172773E+08, -2.566482635254997E+08,
2460994.500000000, A.D. 2025-Nov-15 00:00:00.0000, 6.438885576276907E+09, -6.536754702759848E+08, -2.568703581891289E+08,
2461001.500000000, A.D. 2025-Nov-22 00:00:00.0000, 6.439127198978018E+09, -6.509220280877905E+08, -2.570924070720856E+08,
2461008.500000000, A.D. 2025-Nov-29 00:00:00.0000, 6.439367686615014E+09, -6.481685464221590E+08, -2.573144103582157E+08,
2461015.500000000, A.D. 2025-Dec-06 00:00:00.0000, 6.439607041789532E+09, -6.454150242388529E+08, -2.575363681459171E+08,
2461022.500000000, A.D. 2025-Dec-13 00:00:00.0000, 6.439845265657294E+09, -6.426614591420777E+08, -2.577582802842976E+08,
2461029.500000000, A.D. 2025-Dec-20 00:00:00.0000, 6.440082357857109E+09, -6.399078491381992E+08, -2.579801465070249E+08,
2461036.500000000, A.D. 2025-Dec-27 00:00:00.0000, 6.440318317444538E+09, -6.371541931052986E+08, -2.582019665536854E+08,
2461043.500000000, A.D. 2026-Jan-03 00:00:00.0000, 6.440553143370970E+09, -6.344004905895758E+08, -2.584237401951303E+08,
2461050.500000000, A.D. 2026-Jan-10 00:00:00.0000, 6.440786834617907E+09, -6.316467416068174E+08, -2.586454672283313E+08,
2461057.500000000, A.D. 2026-Jan-17 00:00:00.0000, 6.441019390218983E+09, -6.288929465396841E+08, -2.588671474694913E+08,
2461064.500000000, A.D. 2026-Jan-24 00:00:00.0000, 6.441250809247694E+09, -6.261391061072624E+08, -2.590887807506120E+08,
2461071.500000000, A.D. 2026-Jan-31 00:00:00.0000, 6.441481090794274E+09, -6.233852214133639E+08, -2.593103669221706E+08,
2461078.500000000, A.D. 2026-Feb-07 00:00:00.0000, 6.441710233993224E+09, -6.206312941299895E+08, -2.595319058721236E+08,
2461085.500000000, A.D. 2026-Feb-14 00:00:00.0000, 6.441938238354583E+09, -6.178773268303694E+08, -2.597533975855859E+08,
2461092.500000000, A.D. 2026-Feb-21 00:00:00.0000, 6.442165104786466E+09, -6.151233228937563E+08, -2.599748422334746E+08,
2461099.500000000, A.D. 2026-Feb-28 00:00:00.0000, 6.442390836224064E+09, -6.123692848278877E+08, -2.601962400962581E+08,
2461106.500000000, A.D. 2026-Mar-07 00:00:00.0000, 6.442615435806535E+09, -6.096152129587249E+08, -2.604175912932781E+08,
2461113.500000000, A.D. 2026-Mar-14 00:00:00.0000, 6.442838905377493E+09, -6.068611068200622E+08, -2.606388957627853E+08,
2461120.500000000, A.D. 2026-Mar-21 00:00:00.0000, 6.443061246091993E+09, -6.041069663449440E+08, -2.608601534192775E+08,
2461127.500000000, A.D. 2026-Mar-28 00:00:00.0000, 6.443282459120612E+09, -6.013527918302053E+08, -2.610813642196507E+08,
2461134.500000000, A.D. 2026-Apr-04 00:00:00.0000, 6.443502545846889E+09, -5.985985836397804E+08, -2.613025281615544E+08,
2461141.500000000, A.D. 2026-Apr-11 00:00:00.0000, 6.443721507832076E+09, -5.958443420067425E+08, -2.615236452683028E+08,
2461148.500000000, A.D. 2026-Apr-18 00:00:00.0000, 6.443939346706573E+09, -5.930900669407872E+08, -2.617447155752997E+08,
2461155.500000000, A.D. 2026-Apr-25 00:00:00.0000, 6.444156064034138E+09, -5.903357582264657E+08, -2.619657391207771E+08,
2461162.500000000, A.D. 2026-May-02 00:00:00.0000, 6.444371661179883E+09, -5.875814155417945E+08, -2.621867159458897E+08,
2461169.500000000, A.D. 2026-May-09 00:00:00.0000, 6.444586139307040E+09, -5.848270387634599E+08, -2.624076461208417E+08,
2461176.500000000, A.D. 2026-May-16 00:00:00.0000, 6.444799499880827E+09, -5.820726283202543E+08, -2.626285298202778E+08,
2461183.500000000, A.D. 2026-May-23 00:00:00.0000, 6.445011745731528E+09, -5.793181845723407E+08, -2.628493673690699E+08,
2461190.500000000, A.D. 2026-May-30 00:00:00.0000, 6.445222880598551E+09, -5.765637058967414E+08, -2.630701590417450E+08,
2461197.500000000, A.D. 2026-Jun-06 00:00:00.0000, 6.445432906838251E+09, -5.738091887526021E+08, -2.632909048540446E+08,
2461204.500000000, A.D. 2026-Jun-13 00:00:00.0000, 6.445641824961552E+09, -5.710546295272634E+08, -2.635116046667288E+08,
2461211.500000000, A.D. 2026-Jun-20 00:00:00.0000, 6.445849634500327E+09, -5.683000252369891E+08, -2.637322583167403E+08,
2461218.500000000, A.D. 2026-Jun-27 00:00:00.0000, 6.446056334504201E+09, -5.655453734221882E+08, -2.639528656479779E+08,
2461225.500000000, A.D. 2026-Jul-04 00:00:00.0000, 6.446261923667646E+09, -5.627906720119849E+08, -2.641734265052755E+08,
2461232.500000000, A.D. 2026-Jul-11 00:00:00.0000, 6.446466400341301E+09, -5.600359192899948E+08, -2.643939407259274E+08,
2461239.500000000, A.D. 2026-Jul-18 00:00:00.0000, 6.446669762520192E+09, -5.572811139355116E+08, -2.646144081354309E+08,
2461246.500000000, A.D. 2026-Jul-25 00:00:00.0000, 6.446872007833314E+09, -5.545262551373198E+08, -2.648348285496898E+08,
2461253.500000000, A.D. 2026-Aug-01 00:00:00.0000, 6.447073133582624E+09, -5.517713428281839E+08, -2.650552017922211E+08,
2461260.500000000, A.D. 2026-Aug-08 00:00:00.0000, 6.447273137046275E+09, -5.490163780758065E+08, -2.652755277491474E+08,
2461267.500000000, A.D. 2026-Aug-15 00:00:00.0000, 6.447472016461075E+09, -5.462613631797497E+08, -2.654958064633345E+08,
2461274.500000000, A.D. 2026-Aug-22 00:00:00.0000, 6.447669771923020E+09, -5.435063002528813E+08, -2.657160380981194E+08,
$$EOE